#aV2021  7 12  0  0  0.00000000     288 DD+AD WGS84 FIT  NGA
## 2166  86400.00000000   300.00000000 59407 0.0000000000000
+   32     1  2  3  4  5  6  7  8  9 10 11 12 13 14 15 16 17
+         18 19 20 21 22 23 24 25 26 27 28 29 30 31 32  0  0
+          0  0  0  0  0  0  0  0  0  0  0  0  0  0  0  0  0
+          0  0  0  0  0  0  0  0  0  0  0  0  0  0  0  0  0
+          0  0  0  0  0  0  0  0  0  0  0  0  0  0  0  0  0
++         2  2  2  2  2  2  2  2  2  2  2  2  2  2  2  2  2
++         2  2  2  2  2  2  2  2  2  2  2  2  2  2  2  0  0
++         0  0  0  0  0  0  0  0  0  0  0  0  0  0  0  0  0
++         0  0  0  0  0  0  0  0  0  0  0  0  0  0  0  0  0
++         0  0  0  0  0  0  0  0  0  0  0  0  0  0  0  0  0
%c cc cc ccc ccc cccc cccc cccc cccc ccccc ccccc ccccc ccccc
%c cc cc ccc ccc cccc cccc cccc cccc ccccc ccccc ccccc ccccc
%f  0.0000000  0.000000000  0.00000000000  0.000000000000000
%f  0.0000000  0.000000000  0.00000000000  0.000000000000000
%i    0    0    0    0      0      0      0      0         0
%i    0    0    0    0      0      0      0      0         0
/*      NGA, ST. LOUIS,MO.                                  
/*   EPHEMERIS COMPUTED FROM 2 DAYS OF DATA                 
/*   EPOCHA v6 SMOOTHER                                     
/*   G2139 IERS2010 SATIGS SATAPC                           
*  2021  7 12 15  5  0.00000000
P  1  16786.240491   4866.542492  19835.810002    630.458418                    
V  1  10088.957540  23558.265541 -13795.989467     -0.115637                    
P  2 -13812.894892 -22574.939864  -1110.182437   -619.065606                    
V  2   1362.184081  -3310.954430  31814.103512     -0.026670                    
P  3  18570.760385  -5071.858153  18154.775553   -218.469263                    
V  3 -11943.403962  20014.805300  17828.420943     -0.114741                    
P  4  26360.025362    505.563342  -3476.833356   -202.195913                    
V  4   4083.920077   3220.424312  31300.012550     -0.007937                    
P  5 -13447.358878  -7480.157874 -21816.249384    -47.694915                    
V  5  14610.561719 -23086.979592   -921.897370     -0.011518                    
P  6  -5678.289564 -24611.502595   8166.272641     39.090053                    
V  6   6189.730927   8445.785499  30021.519821      0.054380                    
P  7  11350.171402 -10973.894318 -20928.581760    200.666440                    
V  7  12481.691389  24562.088719  -6494.750144      0.089485                    
P  8  24934.454777   6426.271926  -7147.468060    -28.543662                    
V  8  -9094.852071   1693.103469 -29959.500430     -0.014482                    
P  9  21368.527240  -8306.204592 -13492.541400   -355.175965                    
V  9  16866.636257   3382.462054  24717.882143     -0.014873                    
P 10 -10552.753171  23358.643488   6509.129974   -160.588780                    
V 10  -6764.014888   5269.735583 -30686.543998     -0.076034                    
P 11 -11515.047281 -23814.685020  -2420.795415     13.829366                    
V 11   1479.113420  -3899.327451  31530.545609      0.095045                    
P 12 -18587.081814   3245.813596  18386.633315    -67.621551                    
V 12  13759.715580 -19573.383118  17262.003592     -0.052825                    
P 13 -19270.459928 -13192.516899 -12919.388673    156.757417                    
V 13  16174.270701   1440.859955 -25727.387576      0.049911                    
P 14  11443.019972 -23000.589906   6654.008003     49.071062                    
V 14   7365.588163  -5058.646610 -30166.207191     -0.089873                    
P 15 -25517.584731  -4300.051660  -7115.966315   -136.040234                    
V 15   8376.487314  -3581.953344 -29066.210652      0.026574                    
P 16   7903.064467  13525.222292 -21629.454945   -355.939944                    
V 16 -17691.535318  20303.915400   6748.946621     -0.061411                    
P 17   8389.165662 -13482.748522  21718.861049    472.669870                    
V 17  26197.506414   4103.389463  -7720.958733      0.058985                    
P 18  -9242.213531  13969.040379 -20607.499691    341.457410                    
V 18 -11576.641985 -23447.268353 -10783.057351     -0.025677                    
P 19  -1819.189258 -15030.316830  21555.452232     25.359715                    
V 19  27564.769271   4763.354561   5440.026209      0.049771                    
P 20  -6663.950180 -17662.112713 -18785.304319    520.265554                    
V 20  11849.576289 -20727.855584  15009.723973     -0.003671                    
P 21  19137.051991  11397.825889  15542.201369    130.811947                    
V 21   7753.406533  16652.880525 -22299.205744      0.023350                    
P 22  15906.525495   3398.022801  21155.624718   -565.429554                    
V 22 -12136.537246  23642.132004   5576.425125      0.095468                    
P 23 -16917.282770  19845.499467  -4898.828307     85.590324                    
V 23   1141.765629  -6649.611611 -31075.500279     -0.051045                    
P 24 -18934.748570  -8849.790836  16362.451613    171.336003                    
V 24  -8580.440302 -19475.408637 -19757.310415      0.146266                    
P 25 -19085.371246  14560.714269  10801.786817    172.211435                    
V 25   5763.851863 -13265.801912  27662.850925      0.067099                    
P 26    189.133246  21338.615226 -15697.114765    109.689991                    
V 26 -12675.602325  15661.617491  21485.961501      0.046109                    
P 27  17750.674767  12208.305533 -15953.885462   -161.743597                    
V 27 -19794.020738   -183.612959 -22061.545159     -0.059231                    
P 28   7269.697453 -22453.822879  12915.680174    539.107454                    
V 28  11196.680064 -10755.486432 -25933.830827     -0.065869                    
P 29 -22772.114743   5135.515520 -12772.470035   -379.005198                    
V 29 -15647.196965  -4049.863609  26314.680643     -0.060842                    
P 30   2442.528025 -21601.502191 -15029.410987   -449.925465                    
V 30  10407.441138  16561.025466 -22247.281760     -0.044227                    
P 31   6414.717764  24776.820667   6022.531929   -128.225418                    
V 31  -6204.842848  -5843.096639  30672.294709     -0.021211                    
P 32  -4498.812912  14929.127806  21601.728857     14.443976                    
V 32 -27087.683692  -2366.005954  -4197.037078     -0.019775                    
EOF
